[{"OBJECT_NAME":"STRIX-3","OBJECT_ID":"2024-047A","EPOCH":"2026-03-09T22:36:43.864704","MEAN_MOTION":15.17646985,"ECCENTRICITY":0.00153398,"INCLINATION":97.656,"RA_OF_ASC_NODE":43.3231,"ARG_OF_PERICENTER":51.5909,"MEAN_ANOMALY":308.6699,"EPHEMERIS_TYPE":0,"CLASSIFICATION_TYPE":"U","NORAD_CAT_ID":59224,"ELEMENT_SET_NO":999,"REV_AT_EPOCH":10968,"BSTAR":0.00061996741,"MEAN_MOTION_DOT":0.00012457,"MEAN_MOTION_DDOT":0},{"OBJECT_NAME":"OBJECT J","OBJECT_ID":"2022-019J","EPOCH":"2026-03-09T22:43:41.570688","MEAN_MOTION":15.19970869,"ECCENTRICITY":0.00078987,"INCLINATION":97.3535,"RA_OF_ASC_NODE":134.3032,"ARG_OF_PERICENTER":206.0852,"MEAN_ANOMALY":153.9986,"EPHEMERIS_TYPE":0,"CLASSIFICATION_TYPE":"U","NORAD_CAT_ID":51832,"ELEMENT_SET_NO":999,"REV_AT_EPOCH":22272,"BSTAR":8.5341526e-5,"MEAN_MOTION_DOT":1.77e-5,"MEAN_MOTION_DDOT":0}]
